NAVSTAR 71 (USA 256)    
1 40105U 14045A   26160.07599103  .00000000  00000+0  00000+0 0  9991
2 40105  55.3481  88.7882 0032957 118.3569 241.9693  2.00557853 85910
ASIASAT 8 (AMOS-7)      
1 40107U 14046A   26160.29144829 -.00000316  00000+0  00000+0 0  9990
2 40107   0.0175 317.2757 0001448 122.0317  28.6112  1.00270772102078
YAOGAN-20 01A           
1 40109U 14047A   26160.25942273 -.00000047  00000+0  47093-4 0  9997
2 40109  63.3801  39.5884 0389472  14.6427 346.5508 13.45442096581374
YAOGAN-20 01B           
1 40110U 14047B   26160.26108255 -.00000041  00000+0  53233-4 0  9991
2 40110  63.3801  40.4622 0389323  14.6656 346.5292 13.45440012581215
YAOGAN-20 01C           
1 40111U 14047C   26160.25169714 -.00000020  00000+0  75123-4 0  9997
2 40111  63.3792  40.1674 0389383  15.0562 346.1674 13.45450046581225
WORLDVIEW-3 (WV-3)      
1 40115U 14048A   26160.28383412  .00000720  00000+0  90660-4 0  9997
2 40115  97.8566 235.2257 0001589  37.9825 322.1501 14.85008850640730
GAOFEN-2                
1 40118U 14049A   26160.27091301  .00000742  00000+0  10297-3 0  9994
2 40118  98.0107 224.4855 0005895 258.5732 101.4818 14.80890854638063
BRITE-PL2 (HEWELIUSZ)   
1 40119U 14049B   26160.27228885  .00001922  00000+0  18289-3 0  9994
2 40119  97.9089 272.2120 0015166 132.0173 228.2341 14.94568700640265
GSAT0201 (GALILEO 5)    
1 40128U 14050A   26159.25417628 -.00000052  00000+0  00000+0 0  9999
2 40128  48.8853 273.8028 1673152 179.0422 181.3667  1.85520041 78152
GSAT0202 (GALILEO 6)    
1 40129U 14050B   26160.04872695 -.00000052  00000+0  00000+0 0  9998
2 40129  48.9012 272.8557 1674620 179.8073 180.3093  1.85520610 80335
LING QIAO               
1 40136U 14051A   26160.29237772 -.00000051  00000+0 -23475-5 0  9992
2 40136  98.7060 162.0809 0020379 193.2775 166.7874 14.30269033613872
CHUANGXIN 1-04 (CX-1-04)
1 40137U 14051B   26160.32579443  .00000216  00000+0  10015-3 0  9996
2 40137  98.7059 162.1568 0021794 194.4393 165.6169 14.30409485613428
ASIASAT 6               
1 40141U 14052A   26160.29430830  .00000000  00000+0  00000+0 0  9994
2 40141   0.0191 349.0816 0000694 113.0582  21.3953  1.00268412 43007
YAOGAN-21               
1 40143U 14053A   26160.29546567  .00004948  00000+0  19339-3 0  9996
2 40143  97.1482 200.8702 0009804 116.0277 244.1972 15.26254952653755
OPTUS 10                
1 40146U 14054A   26160.28702556 -.00000131  00000+0  00000+0 0  9993
2 40146   0.1210 337.6623 0001942 101.1004  78.2245  1.00270184 42955
MEASAT-3B               
1 40147U 14054B   26160.28842953 -.00000225  00000+0  00000+0 0  9994
2 40147   0.0483  47.9418 0003132  20.6537  24.4008  1.00272318 42837
SJ-11-07                
1 40261U 14059A   26160.30642194  .00000547  00000+0  11386-3 0  9993
2 40261  97.9938 229.8343 0010740 167.4224 192.7249 14.63731388623761
HIMAWARI-8              
1 40267U 14060A   26159.84027778 -.00000259  00000+0  00000+0 0  9991
2 40267   0.0136 319.3355 0000818 138.5674 242.4936  1.00270961 42676
IRNSS-1C                
1 40269U 14061A   26159.85040343 -.00000145  00000+0  00000+0 0  9992
2 40269   6.4974  89.0865 0022645   1.4878 195.8228  1.00270647 42600
INTELSAT 30 (IS-30)     
1 40271U 14062A   26160.24740331 -.00000133  00000+0  00000+0 0  9992
2 40271   0.0207  36.9615 0000901 354.5900 220.0363  1.00268225  6717
ARSAT 1                 
1 40272U 14062B   26160.25630109 -.00000243  00000+0  00000+0 0  9997
2 40272   0.0136   3.7682 0001691  73.8874 200.4410  1.00268878 42543
YAOGAN-22               
1 40275U 14063A   26160.27637820 -.00000017  00000+0  79583-4 0  9996
2 40275 100.7714 311.4186 0006161 203.2708 156.8125 13.15531001558770
EUTELSAT 53A            
1 40277U 14064A   26160.20980113  .00000115  00000+0  00000+0 0  9999
2 40277   0.0145 284.0351 0000791 258.5594 203.5265  1.00270479 41480
SJ-11-08                
1 40286U 14066A   26160.26993841  .00000567  00000+0  11229-3 0  9999
2 40286  98.3513 304.9887 0010759 255.9759 104.0248 14.66163026620051
NAVSTAR 72 (USA 258)    
1 40294U 14068A   26158.94946308 -.00000065  00000+0  00000+0 0  9993
2 40294  56.9813  31.3107 0066833  70.2374 290.5357  2.00575658 85010
MERIDIAN 7              
1 40296U 14069A   26160.20853024  .00000308  00000+0  00000+0 0  9999
2 40296  63.4425 216.1111 6651037 270.6229  19.6863  2.00592884 85077
ASNARO                  
1 40298U 14070A   26160.25626171  .00007490  00000+0  35762-3 0  9995
2 40298  97.3447 236.5856 0004823 189.9880 170.1260 15.19318504642808
YAOGAN-24               
1 40310U 14072A   26160.28722294  .00000938  00000+0  14310-3 0  9994
2 40310  98.1479 297.5591 0012662 291.8302  68.1560 14.76214066622551
COSMOS 2501 [GLONASS-K] 
1 40315U 14075A   26159.38479941  .00000099  00000+0  00000+0 0  9994
2 40315  63.6157 190.6768 0022458 212.1513 147.7783  2.13101441 89669
GSAT-16                 
1 40332U 14078A   26160.21014780  .00000102  00000+0  00000+0 0  9991
2 40332   0.0683  92.8435 0007724 352.5670 302.9065  1.00272195 42020
DIRECTV 14              
1 40333U 14078B   26160.05357880 -.00000109  00000+0  00000+0 0  9993
2 40333   0.0091   1.3268 0000235 206.1301 330.0282  1.00271044 41965
