OBJECT_NAME,OBJECT_ID,EPOCH,MEAN_MOTION,ECCENTRICITY,INCLINATION,RA_OF_ASC_NODE,ARG_OF_PERICENTER,MEAN_ANOMALY,EPHEMERIS_TYPE,CLASSIFICATION_TYPE,NORAD_CAT_ID,ELEMENT_SET_NO,REV_AT_EPOCH,BSTAR,MEAN_MOTION_DOT,MEAN_MOTION_DDOT
NAVSTAR 71 (USA 256),2014-045A,2026-06-09T01:49:25.624992,2.00557853,.0032957,55.3481,88.7882,118.3569,241.9693,0,U,40105,999,8591,0,0,0
ASIASAT 8 (AMOS-7),2014-046A,2026-06-09T06:59:41.132256,1.00270772,.00014486,0.0175,317.2757,122.0317,28.6112,0,U,40107,999,10207,0,-.316E-5,0
YAOGAN-20 01A,2014-047A,2026-06-09T06:13:34.123872,13.45442096,.03894722,63.3801,39.5884,14.6427,346.5508,0,U,40109,999,58137,.47092996E-4,-.47E-6,0
YAOGAN-20 01B,2014-047B,2026-06-09T06:15:57.532320,13.45440012,.03893235,63.3801,40.4622,14.6656,346.5292,0,U,40110,999,58121,.53232753E-4,-.41E-6,0
YAOGAN-20 01C,2014-047C,2026-06-09T06:02:26.632896,13.45450046,.0389383,63.3792,40.1674,15.0562,346.1674,0,U,40111,999,58122,.75123484E-4,-.2E-6,0
WORLDVIEW-3 (WV-3),2014-048A,2026-06-09T06:48:43.267968,14.85008850,.00015897,97.8566,235.2257,37.9825,322.1501,0,U,40115,999,64073,.90660056E-4,.72E-5,0
GAOFEN-2,2014-049A,2026-06-09T06:30:06.884064,14.80890854,.00058958,98.0107,224.4855,258.5732,101.4818,0,U,40118,999,63806,.10296728E-3,.742E-5,0
BRITE-PL2 (HEWELIUSZ),2014-049B,2026-06-09T06:32:05.756640,14.94568700,.00151663,97.9089,272.2120,132.0173,228.2341,0,U,40119,999,64026,.18288975E-3,.1922E-4,0
GSAT0201 (GALILEO 5),2014-050A,2026-06-08T06:06:00.830592,1.85520041,.16731522,48.8853,273.8028,179.0422,181.3667,0,U,40128,999,7815,0,-.52E-6,0
GSAT0202 (GALILEO 6),2014-050B,2026-06-09T01:10:10.008480,1.85520610,.16746201,48.9012,272.8557,179.8073,180.3093,0,U,40129,999,8033,0,-.52E-6,0
LING QIAO,2014-051A,2026-06-09T07:01:01.435008,14.30269033,.00203798,98.7060,162.0809,193.2775,166.7874,0,U,40136,999,61387,-.2347483E-5,-.51E-6,0
CHUANGXIN 1-04 (CX-1-04),2014-051B,2026-06-09T07:49:08.638752,14.30409485,.00217941,98.7059,162.1568,194.4393,165.6169,0,U,40137,999,61342,.10015434E-3,.216E-5,0
ASIASAT 6,2014-052A,2026-06-09T07:03:48.237120,1.00268412,.00006947,0.0191,349.0816,113.0582,21.3953,0,U,40141,999,4300,0,0,0
YAOGAN-21,2014-053A,2026-06-09T07:05:28.233888,15.26254952,.00098042,97.1482,200.8702,116.0277,244.1972,0,U,40143,999,65375,.19339209E-3,.4948E-4,0
OPTUS 10,2014-054A,2026-06-09T06:53:19.008384,1.00270184,.0001942,0.1210,337.6623,101.1004,78.2245,0,U,40146,999,4295,0,-.131E-5,0
MEASAT-3B,2014-054B,2026-06-09T06:55:20.311392,1.00272318,.00031328,0.0483,47.9418,20.6537,24.4008,0,U,40147,999,4283,0,-.225E-5,0
SJ-11-07,2014-059A,2026-06-09T07:21:14.855616,14.63731388,.00107402,97.9938,229.8343,167.4224,192.7249,0,U,40261,999,62376,.11385822E-3,.547E-5,0
HIMAWARI-8,2014-060A,2026-06-08T20:10:00.000192,1.00270961,.00008182,0.0136,319.3355,138.5674,242.4936,0,U,40267,999,4267,0,-.259E-5,0
IRNSS-1C,2014-061A,2026-06-08T20:24:34.856352,1.00270647,.00226452,6.4974,89.0865,1.4878,195.8228,0,U,40269,999,4260,0,-.145E-5,0
INTELSAT 30 (IS-30),2014-062A,2026-06-09T05:56:15.645984,1.00268225,.00009017,0.0207,36.9615,354.5900,220.0363,0,U,40271,999,671,0,-.133E-5,0
ARSAT 1,2014-062B,2026-06-09T06:09:04.414176,1.00268878,.00016913,0.0136,3.7682,73.8874,200.4410,0,U,40272,999,4254,0,-.243E-5,0
YAOGAN-22,2014-063A,2026-06-09T06:37:59.076480,13.15531001,.00061614,100.7714,311.4186,203.2708,156.8125,0,U,40275,999,55877,.79583181E-4,-.17E-6,0
EUTELSAT 53A,2014-064A,2026-06-09T05:02:06.817632,1.00270479,.00007912,0.0145,284.0351,258.5594,203.5265,0,U,40277,999,4148,0,.115E-5,0
SJ-11-08,2014-066A,2026-06-09T06:28:42.678624,14.66163026,.00107592,98.3513,304.9887,255.9759,104.0248,0,U,40286,999,62005,.11228669E-3,.567E-5,0
NAVSTAR 72 (USA 258),2014-068A,2026-06-07T22:47:13.610112,2.00575658,.00668338,56.9813,31.3107,70.2374,290.5357,0,U,40294,999,8501,0,-.65E-6,0
MERIDIAN 7,2014-069A,2026-06-09T05:00:17.012736,2.00592884,.66510375,63.4425,216.1111,270.6229,19.6863,0,U,40296,999,8507,0,.308E-5,0
ASNARO,2014-070A,2026-06-09T06:09:01.011744,15.19318504,.00048238,97.3447,236.5856,189.9880,170.1260,0,U,40298,999,64280,.35762295E-3,.749E-4,0
YAOGAN-24,2014-072A,2026-06-09T06:53:36.062016,14.76214066,.00126623,98.1479,297.5591,291.8302,68.1560,0,U,40310,999,62255,.1430985E-3,.938E-5,0
COSMOS 2501 [GLONASS-K],2014-075A,2026-06-08T09:14:06.669024,2.13101441,.00224587,63.6157,190.6768,212.1513,147.7783,0,U,40315,999,8966,0,.99E-6,0
GSAT-16,2014-078A,2026-06-09T05:02:36.769920,1.00272195,.00077246,0.0683,92.8435,352.5670,302.9065,0,U,40332,999,4202,0,.102E-5,0
DIRECTV 14,2014-078B,2026-06-09T01:17:09.208320,1.00271044,.00002356,0.0091,1.3268,206.1301,330.0282,0,U,40333,999,4196,0,-.109E-5,0
